<?xml version="1.0" encoding="UTF-8"?>
<ndm xmlns:xsi="http://www.w3.org/2001/XMLSchema-instance" xsi:noNamespaceSchemaLocation="https://sanaregistry.org/r/ndmxml_unqualified/ndmxml-2.0.0-master-2.0.xsd">
<omm id="CCSDS_OMM_VERS" version="2.0">
<header><CREATION_DATE/><ORIGINATOR/></header><body><segment><metadata><OBJECT_NAME>ORBCOMM FM33 [-]</OBJECT_NAME><OBJECT_ID>1999-065D</OBJECT_ID><CENTER_NAME>EARTH</CENTER_NAME><REF_FRAME>TEME</REF_FRAME><TIME_SYSTEM>UTC</TIME_SYSTEM><MEAN_ELEMENT_THEORY>SGP4</MEAN_ELEMENT_THEORY></metadata><data><meanElements><EPOCH>2023-12-01T15:38:07.746720</EPOCH><MEAN_MOTION>14.37043150</MEAN_MOTION><ECCENTRICITY>.0008956</ECCENTRICITY><INCLINATION>45.0268</INCLINATION><RA_OF_ASC_NODE>151.4440</RA_OF_ASC_NODE><ARG_OF_PERICENTER>111.5196</ARG_OF_PERICENTER><MEAN_ANOMALY>11.0740</MEAN_ANOMALY></meanElements><tleParameters><EPHEMERIS_TYPE>0</EPHEMERIS_TYPE><CLASSIFICATION_TYPE>U</CLASSIFICATION_TYPE><NORAD_CAT_ID>25983</NORAD_CAT_ID><ELEMENT_SET_NO>999</ELEMENT_SET_NO><REV_AT_EPOCH>25492</REV_AT_EPOCH><BSTAR>.9589E-3</BSTAR><MEAN_MOTION_DOT>.2731E-4</MEAN_MOTION_DOT><MEAN_MOTION_DDOT>0</MEAN_MOTION_DDOT></tleParameters></data></segment></body></omm>
<omm id="CCSDS_OMM_VERS" version="2.0">
<header><CREATION_DATE/><ORIGINATOR/></header><body><segment><metadata><OBJECT_NAME>ORBCOMM FM36 [-]</OBJECT_NAME><OBJECT_ID>1999-065E</OBJECT_ID><CENTER_NAME>EARTH</CENTER_NAME><REF_FRAME>TEME</REF_FRAME><TIME_SYSTEM>UTC</TIME_SYSTEM><MEAN_ELEMENT_THEORY>SGP4</MEAN_ELEMENT_THEORY></metadata><data><meanElements><EPOCH>2023-12-02T02:59:37.128192</EPOCH><MEAN_MOTION>14.34923542</MEAN_MOTION><ECCENTRICITY>.0004497</ECCENTRICITY><INCLINATION>45.0390</INCLINATION><RA_OF_ASC_NODE>231.9439</RA_OF_ASC_NODE><ARG_OF_PERICENTER>352.1195</ARG_OF_PERICENTER><MEAN_ANOMALY>7.9581</MEAN_ANOMALY></meanElements><tleParameters><EPHEMERIS_TYPE>0</EPHEMERIS_TYPE><CLASSIFICATION_TYPE>U</CLASSIFICATION_TYPE><NORAD_CAT_ID>25984</NORAD_CAT_ID><ELEMENT_SET_NO>999</ELEMENT_SET_NO><REV_AT_EPOCH>25405</REV_AT_EPOCH><BSTAR>.1506E-2</BSTAR><MEAN_MOTION_DOT>.4183E-4</MEAN_MOTION_DOT><MEAN_MOTION_DDOT>0</MEAN_MOTION_DDOT></tleParameters></data></segment></body></omm>
<omm id="CCSDS_OMM_VERS" version="2.0">
<header><CREATION_DATE/><ORIGINATOR/></header><body><segment><metadata><OBJECT_NAME>ORBCOMM FM35 [+]</OBJECT_NAME><OBJECT_ID>1999-065F</OBJECT_ID><CENTER_NAME>EARTH</CENTER_NAME><REF_FRAME>TEME</REF_FRAME><TIME_SYSTEM>UTC</TIME_SYSTEM><MEAN_ELEMENT_THEORY>SGP4</MEAN_ELEMENT_THEORY></metadata><data><meanElements><EPOCH>2023-12-02T03:01:16.588416</EPOCH><MEAN_MOTION>14.34594520</MEAN_MOTION><ECCENTRICITY>.0002546</ECCENTRICITY><INCLINATION>45.0393</INCLINATION><RA_OF_ASC_NODE>234.1385</RA_OF_ASC_NODE><ARG_OF_PERICENTER>82.4582</ARG_OF_PERICENTER><MEAN_ANOMALY>277.6555</MEAN_ANOMALY></meanElements><tleParameters><EPHEMERIS_TYPE>0</EPHEMERIS_TYPE><CLASSIFICATION_TYPE>U</CLASSIFICATION_TYPE><NORAD_CAT_ID>25985</NORAD_CAT_ID><ELEMENT_SET_NO>999</ELEMENT_SET_NO><REV_AT_EPOCH>25405</REV_AT_EPOCH><BSTAR>.13347E-2</BSTAR><MEAN_MOTION_DOT>.3665E-4</MEAN_MOTION_DOT><MEAN_MOTION_DDOT>0</MEAN_MOTION_DDOT></tleParameters></data></segment></body></omm>
<omm id="CCSDS_OMM_VERS" version="2.0">
<header><CREATION_DATE/><ORIGINATOR/></header><body><segment><metadata><OBJECT_NAME>ORBCOMM FM34 [-]</OBJECT_NAME><OBJECT_ID>1999-065G</OBJECT_ID><CENTER_NAME>EARTH</CENTER_NAME><REF_FRAME>TEME</REF_FRAME><TIME_SYSTEM>UTC</TIME_SYSTEM><MEAN_ELEMENT_THEORY>SGP4</MEAN_ELEMENT_THEORY></metadata><data><meanElements><EPOCH>2023-12-01T04:28:17.724864</EPOCH><MEAN_MOTION>14.34538548</MEAN_MOTION><ECCENTRICITY>.0004355</ECCENTRICITY><INCLINATION>45.0386</INCLINATION><RA_OF_ASC_NODE>239.0559</RA_OF_ASC_NODE><ARG_OF_PERICENTER>26.0137</ARG_OF_PERICENTER><MEAN_ANOMALY>334.0929</MEAN_ANOMALY></meanElements><tleParameters><EPHEMERIS_TYPE>0</EPHEMERIS_TYPE><CLASSIFICATION_TYPE>U</CLASSIFICATION_TYPE><NORAD_CAT_ID>25986</NORAD_CAT_ID><ELEMENT_SET_NO>999</ELEMENT_SET_NO><REV_AT_EPOCH>25384</REV_AT_EPOCH><BSTAR>.7881E-3</BSTAR><MEAN_MOTION_DOT>.2103E-4</MEAN_MOTION_DOT><MEAN_MOTION_DDOT>0</MEAN_MOTION_DDOT></tleParameters></data></segment></body></omm>
<omm id="CCSDS_OMM_VERS" version="2.0">
<header><CREATION_DATE/><ORIGINATOR/></header><body><segment><metadata><OBJECT_NAME>ORBCOMM FM38 [-]</OBJECT_NAME><OBJECT_ID>2008-031A</OBJECT_ID><CENTER_NAME>EARTH</CENTER_NAME><REF_FRAME>TEME</REF_FRAME><TIME_SYSTEM>UTC</TIME_SYSTEM><MEAN_ELEMENT_THEORY>SGP4</MEAN_ELEMENT_THEORY></metadata><data><meanElements><EPOCH>2023-12-02T12:04:47.367264</EPOCH><MEAN_MOTION>14.76527597</MEAN_MOTION><ECCENTRICITY>.0005252</ECCENTRICITY><INCLINATION>48.4398</INCLINATION><RA_OF_ASC_NODE>106.0821</RA_OF_ASC_NODE><ARG_OF_PERICENTER>158.7676</ARG_OF_PERICENTER><MEAN_ANOMALY>201.3457</MEAN_ANOMALY></meanElements><tleParameters><EPHEMERIS_TYPE>0</EPHEMERIS_TYPE><CLASSIFICATION_TYPE>U</CLASSIFICATION_TYPE><NORAD_CAT_ID>33060</NORAD_CAT_ID><ELEMENT_SET_NO>999</ELEMENT_SET_NO><REV_AT_EPOCH>83146</REV_AT_EPOCH><BSTAR>.11248E-2</BSTAR><MEAN_MOTION_DOT>.7728E-4</MEAN_MOTION_DOT><MEAN_MOTION_DDOT>0</MEAN_MOTION_DDOT></tleParameters></data></segment></body></omm>
<omm id="CCSDS_OMM_VERS" version="2.0">
<header><CREATION_DATE/><ORIGINATOR/></header><body><segment><metadata><OBJECT_NAME>ORBCOMM FM41 [-]</OBJECT_NAME><OBJECT_ID>2008-031B</OBJECT_ID><CENTER_NAME>EARTH</CENTER_NAME><REF_FRAME>TEME</REF_FRAME><TIME_SYSTEM>UTC</TIME_SYSTEM><MEAN_ELEMENT_THEORY>SGP4</MEAN_ELEMENT_THEORY></metadata><data><meanElements><EPOCH>2023-12-01T12:39:28.026144</EPOCH><MEAN_MOTION>14.76263382</MEAN_MOTION><ECCENTRICITY>.0004363</ECCENTRICITY><INCLINATION>48.4428</INCLINATION><RA_OF_ASC_NODE>116.9517</RA_OF_ASC_NODE><ARG_OF_PERICENTER>142.2481</ARG_OF_PERICENTER><MEAN_ANOMALY>334.7082</MEAN_ANOMALY></meanElements><tleParameters><EPHEMERIS_TYPE>0</EPHEMERIS_TYPE><CLASSIFICATION_TYPE>U</CLASSIFICATION_TYPE><NORAD_CAT_ID>33061</NORAD_CAT_ID><ELEMENT_SET_NO>999</ELEMENT_SET_NO><REV_AT_EPOCH>83083</REV_AT_EPOCH><BSTAR>.65136E-3</BSTAR><MEAN_MOTION_DOT>.4357E-4</MEAN_MOTION_DOT><MEAN_MOTION_DDOT>0</MEAN_MOTION_DDOT></tleParameters></data></segment></body></omm>
<omm id="CCSDS_OMM_VERS" version="2.0">
<header><CREATION_DATE/><ORIGINATOR/></header><body><segment><metadata><OBJECT_NAME>ORBCOMM FM29 [-]</OBJECT_NAME><OBJECT_ID>2008-031C</OBJECT_ID><CENTER_NAME>EARTH</CENTER_NAME><REF_FRAME>TEME</REF_FRAME><TIME_SYSTEM>UTC</TIME_SYSTEM><MEAN_ELEMENT_THEORY>SGP4</MEAN_ELEMENT_THEORY></metadata><data><meanElements><EPOCH>2023-12-01T13:45:35.832960</EPOCH><MEAN_MOTION>14.76146975</MEAN_MOTION><ECCENTRICITY>.0006201</ECCENTRICITY><INCLINATION>48.4381</INCLINATION><RA_OF_ASC_NODE>124.7351</RA_OF_ASC_NODE><ARG_OF_PERICENTER>136.2698</ARG_OF_PERICENTER><MEAN_ANOMALY>338.2637</MEAN_ANOMALY></meanElements><tleParameters><EPHEMERIS_TYPE>0</EPHEMERIS_TYPE><CLASSIFICATION_TYPE>U</CLASSIFICATION_TYPE><NORAD_CAT_ID>33062</NORAD_CAT_ID><ELEMENT_SET_NO>999</ELEMENT_SET_NO><REV_AT_EPOCH>83075</REV_AT_EPOCH><BSTAR>.63871E-3</BSTAR><MEAN_MOTION_DOT>.4257E-4</MEAN_MOTION_DOT><MEAN_MOTION_DDOT>0</MEAN_MOTION_DDOT></tleParameters></data></segment></body></omm>
<omm id="CCSDS_OMM_VERS" version="2.0">
<header><CREATION_DATE/><ORIGINATOR/></header><body><segment><metadata><OBJECT_NAME>ORBCOMM FM39 [-]</OBJECT_NAME><OBJECT_ID>2008-031D</OBJECT_ID><CENTER_NAME>EARTH</CENTER_NAME><REF_FRAME>TEME</REF_FRAME><TIME_SYSTEM>UTC</TIME_SYSTEM><MEAN_ELEMENT_THEORY>SGP4</MEAN_ELEMENT_THEORY></metadata><data><meanElements><EPOCH>2023-12-01T16:28:58.061568</EPOCH><MEAN_MOTION>14.75274520</MEAN_MOTION><ECCENTRICITY>.0006977</ECCENTRICITY><INCLINATION>48.4389</INCLINATION><RA_OF_ASC_NODE>143.5853</RA_OF_ASC_NODE><ARG_OF_PERICENTER>112.0294</ARG_OF_PERICENTER><MEAN_ANOMALY>248.1361</MEAN_ANOMALY></meanElements><tleParameters><EPHEMERIS_TYPE>0</EPHEMERIS_TYPE><CLASSIFICATION_TYPE>U</CLASSIFICATION_TYPE><NORAD_CAT_ID>33063</NORAD_CAT_ID><ELEMENT_SET_NO>999</ELEMENT_SET_NO><REV_AT_EPOCH>83048</REV_AT_EPOCH><BSTAR>.54149E-3</BSTAR><MEAN_MOTION_DOT>.3502E-4</MEAN_MOTION_DOT><MEAN_MOTION_DDOT>0</MEAN_MOTION_DDOT></tleParameters></data></segment></body></omm>

</ndm>
