ORBCOMM FM33 [-]        
1 25983U 99065D   23335.65147855  .00002731  00000+0  95890-3 0  9999
2 25983  45.0268 151.4440 0008956 111.5196  11.0740 14.37043150254928
ORBCOMM FM36 [-]        
1 25984U 99065E   23336.12473528  .00004183  00000+0  15060-2 0  9995
2 25984  45.0390 231.9439 0004497 352.1195   7.9581 14.34923542254055
ORBCOMM FM35 [+]        
1 25985U 99065F   23336.12588644  .00003665  00000+0  13347-2 0  9992
2 25985  45.0393 234.1385 0002546  82.4582 277.6555 14.34594520254057
ORBCOMM FM34 [-]        
1 25986U 99065G   23335.18631626  .00002103  00000+0  78810-3 0  9990
2 25986  45.0386 239.0559 0004355  26.0137 334.0929 14.34538548253844
ORBCOMM FM38 [-]        
1 33060U 08031A   23336.50332601  .00007728  00000+0  11248-2 0  9992
2 33060  48.4398 106.0821 0005252 158.7676 201.3457 14.76527597831469
ORBCOMM FM41 [-]        
1 33061U 08031B   23335.52740771  .00004357  00000+0  65136-3 0  9996
2 33061  48.4428 116.9517 0004363 142.2481 334.7082 14.76263382830834
ORBCOMM FM29 [-]        
1 33062U 08031C   23335.57333140  .00004257  00000+0  63871-3 0  9993
2 33062  48.4381 124.7351 0006201 136.2698 338.2637 14.76146975830756
ORBCOMM FM39 [-]        
1 33063U 08031D   23335.68678312  .00003502  00000+0  54149-3 0  9999
2 33063  48.4389 143.5853 0006977 112.0294 248.1361 14.75274520830485
